{
  "version": 0.6,
  "generator": "Overpass API 0.7.62.1 084b4234",
  "osm3s": {
    "timestamp_osm_base": "2024-06-12T10:28:15Z",
    "timestamp_areas_base": "2024-06-12T05:25:19Z",
    "copyright": "The data included in this document is from www.openstreetmap.org. The data is made available under ODbL."
  },
  "elements": [

{
  "type": "area",
  "id": 3600060189,
  "tags": {
    "ISO3166-1": "RU",
    "ISO3166-1:alpha2": "RU",
    "ISO3166-1:alpha3": "RUS",
    "ISO3166-1:numeric": "643",
    "according_to:RU": "yes",
    "according_to:UA": "no",
    "admin_level": "2",
    "alt_name:eo": "Rusujo;Ruslando",
    "border_type": "nation",
    "boundary": "administrative",
    "currency": "RUB",
    "default_language": "ru",
    "flag": "https://upload.wikimedia.org/wikipedia/commons/f/f3/Flag_of_Russia.svg",
    "int_name": "Russia",
    "int_ref": "RU",
    "name": "Россия",
    "name:UN:ar": "الاتحاد الروسي",
    "name:UN:en": "Russian Federation (the)",
    "name:UN:es": "Federación de Rusia (la)",
    "name:UN:fr": "Fédération de Russie (la)",
    "name:UN:ru": "Российская Федерация",
    "name:UN:zh": "俄罗斯联邦",
    "name:ab": "Урыстәыла",
    "name:ace": "Rusia",
    "name:af": "Rusland",
    "name:ak": "Russia",
    "name:als": "Russland",
    "name:am": "ሩሲያ",
    "name:an": "Rusia",
    "name:ang": "Russland",
    "name:ar": "روسيا",
    "name:arc": "ܪܘܣܝܐ",
    "name:arz": "روسيا",
    "name:as": "ৰুশিযা",
    "name:ast": "Rusia",
    "name:av": "Россиялъул Федерация",
    "name:ay": "Rusiya",
    "name:az": "Rusiya",
    "name:ba": "Рәсәй",
    "name:bar": "Russland",
    "name:bat-smg": "Rosėjė",
    "name:bcl": "Rusya",
    "name:be": "Расія",
    "name:be-tarask": "Расея",
    "name:bg": "Русия",
    "name:bi": "Rusia",
    "name:bjn": "Rusia",
    "name:bm": "Risila",
    "name:bn": "রাশিয়া",
    "name:bo": "ཨུ་རུ་སུ།",
    "name:bpy": "রাশিয়া",
    "name:br": "Rusia",
    "name:bs": "Rusija",
    "name:bug": "Russia",
    "name:bxr": "Ородой Холбооной Улас",
    "name:ca": "Rússia",
    "name:cbk-zam": "Rusia",
    "name:cdo": "Ngò̤-lò̤-sṳ̆",
    "name:ce": "Росси",
    "name:ceb": "Rusya",
    "name:ch": "Russia",
    "name:chr": "ᏲᏂᏱ",
    "name:chy": "Russia",
    "name:ckb": "ڕووسیا",
    "name:co": "Russia",
    "name:crh": "Rusiye",
    "name:cs": "Rusko",
    "name:csb": "Ruskô",
    "name:cu": "Рѡсїꙗ",
    "name:cv": "Раççей Патшалăхĕ",
    "name:cy": "Rwsia",
    "name:da": "Rusland",
    "name:de": "Russland",
    "name:diq": "Rusya",
    "name:dsb": "Rusojska",
    "name:dv": "ރޫސީވިލާތް",
    "name:dz": "ར་ཤི་ཡཱན་ཕེ་ཌི་རེ་ཤཱན",
    "name:ee": "Russia",
    "name:el": "Ρωσία",
    "name:eml": "Rossia",
    "name:en": "Russia",
    "name:eo": "Rusio",
    "name:es": "Rusia",
    "name:et": "Venemaa",
    "name:eu": "Errusia",
    "name:ext": "Russia",
    "name:fa": "روسیه",
    "name:ff": "Roosiya",
    "name:fi": "Venäjä",
    "name:fo": "Russland",
    "name:fr": "Russie",
    "name:frp": "Russie",
    "name:frr": "Ruslönj",
    "name:fur": "Russie",
    "name:fy": "Ruslân",
    "name:ga": "An Rúis",
    "name:gag": "Rusiya",
    "name:gan": "俄羅斯",
    "name:gd": "An Ruis",
    "name:gl": "Rusia",
    "name:gn": "Rrúsia",
    "name:gu": "રશિયા",
    "name:gv": "Yn Roosh",
    "name:ha": "Rasha",
    "name:hak": "Ngò-lò-sṳ̂",
    "name:haw": "Rūsia",
    "name:he": "רוסיה",
    "name:hi": "रूस",
    "name:hif": "Russia",
    "name:hr": "Ruska Federacija",
    "name:hsb": "Ruska federacija",
    "name:ht": "Risi",
    "name:hu": "Oroszország",
    "name:hy": "Ռուսաստան",
    "name:ia": "Russia",
    "name:id": "Rusia",
    "name:ie": "Russia",
    "name:ig": "Mpaghara Russia",
    "name:ik": "Russia",
    "name:ilo": "Rusia",
    "name:io": "Rusia",
    "name:is": "Rússland",
    "name:it": "Russia",
    "name:iu": "ᐅᓛᓴ",
    "name:ja": "ロシア",
    "name:jbo": "rukygu'e",
    "name:jv": "Rusia",
    "name:ka": "რუსეთი",
    "name:kaa": "Rossiya",
    "name:kab": "Rrus",
    "name:kbd": "Урысей",
    "name:kg": "Rusia",
    "name:ki": "Russia",
    "name:kk": "Ресей",
    "name:kl": "Ruslandi",
    "name:km": "រុស្ស៊ី",
    "name:kn": "ರಷ್ಯಾ",
    "name:ko": "러시아",
    "name:koi": "Рочму",
    "name:krc": "Россия Федерация",
    "name:ks": "روٗس",
    "name:ku": "Rûsya",
    "name:kv": "Рочму",
    "name:kw": "Russi",
    "name:ky": "Орусия",
    "name:la": "Russia",
    "name:lad": "Rusia",
    "name:lb": "Russland",
    "name:lbe": "Аьрасат",
    "name:lez": "Урусат",
    "name:lg": "Rwasha",
    "name:li": "Rusland",
    "name:lij": "Ruscia",
    "name:lmo": "Rüssia",
    "name:ln": "Rusí",
    "name:lo": "ລັດເຊັຽ",
    "name:lt": "Rusija",
    "name:ltg": "Krīveja",
    "name:lv": "Krievija",
    "name:lzh": "俄羅斯",
    "name:map-bms": "Rusia",
    "name:mdf": "Рузмастор",
    "name:mg": "Rosia",
    "name:mhr": "Россий",
    "name:mi": "Ruhia",
    "name:min": "Rusia",
    "name:mk": "Русија",
    "name:ml": "റഷ്യ",
    "name:mn": "Оросын Холбооны Улс",
    "name:mo": "Русия",
    "name:mr": "रशिया",
    "name:mrj": "Россий",
    "name:ms": "Rusia",
    "name:mt": "Russja",
    "name:mwl": "Rússia",
    "name:my": "ရုရှားနိုင်ငံ",
    "name:myv": "Россия Мастор",
    "name:mzn": "ئوروسیا",
    "name:na": "Ratsiya",
    "name:nah": "Rusia",
    "name:nan": "Lō͘-se-a",
    "name:nap": "Russia",
    "name:nds": "Russ'sche Föderatschoon",
    "name:nds-nl": "Ruslaand",
    "name:ne": "रुस",
    "name:new": "रुस",
    "name:nl": "Rusland",
    "name:nn": "Russland",
    "name:no": "Russland",
    "name:nov": "Rusia",
    "name:nrm": "Russie",
    "name:nso": "Russia",
    "name:nv": "Biʼééʼ Łichííʼí Bikéyah",
    "name:ny": "Russia",
    "name:oc": "Russia",
    "name:om": "Raashiyaa",
    "name:or": "ଋଷିଆ",
    "name:os": "Уæрæсе",
    "name:pa": "ਰੂਸ",
    "name:pag": "Rusia",
    "name:pam": "Rusia",
    "name:pap": "Rusia",
    "name:pcd": "Russie",
    "name:pdc": "Russland",
    "name:pfl": "Russlond",
    "name:pih": "Rusha",
    "name:pl": "Rosja",
    "name:pms": "Russia",
    "name:pnb": "روس",
    "name:pnt": "Ρουσία",
    "name:ps": "روسیه",
    "name:pt": "Rússia",
    "name:qu": "Rusiya",
    "name:rm": "Russia",
    "name:rmy": "Rusiya",
    "name:rn": "Uburusiya",
    "name:ro": "Rusia",
    "name:roa-rup": "Arusia",
    "name:roa-tara": "Russie",
    "name:ru": "Россия",
    "name:rue": "Росія",
    "name:rw": "Uburusiya",
    "name:sah": "Арассыыйа",
    "name:sc": "Rùssia",
    "name:scn": "Russia",
    "name:sco": "Roushie",
    "name:sd": "روس",
    "name:se": "Ruošša",
    "name:sg": "Rusïi",
    "name:sh": "Rusija",
    "name:si": "රුසියාව",
    "name:sk": "Rusko",
    "name:sl": "Rusija",
    "name:sm": "Lusia",
    "name:smn": "Ruoššâ",
    "name:sms": "Ruõššjânnam",
    "name:sn": "Russia",
    "name:so": "Ruushka",
    "name:sq": "Rusia",
    "name:sr": "Русија",
    "name:srn": "Rusland",
    "name:ss": "IRashiya",
    "name:st": "Russia",
    "name:stq": "Ruslound",
    "name:su": "Rusia",
    "name:sv": "Ryssland",
    "name:sw": "Shirikisho la Urusi",
    "name:szl": "Rusyjŏ",
    "name:ta": "உருசியா",
    "name:te": "రష్యా",
    "name:tet": "Rúsia",
    "name:tg": "Русия",
    "name:th": "ประเทศรัสเซีย",
    "name:ti": "ራሻ",
    "name:tk": "Russiýa",
    "name:tl": "Pederasyong Ruso",
    "name:to": "Lūsia",
    "name:tok": "ma Losi",
    "name:tpi": "Rasia",
    "name:tr": "Rusya Federasyonu",
    "name:ts": "Russia",
    "name:tt": "Русия",
    "name:tum": "Russia",
    "name:tw": "Russia",
    "name:ty": "Rūtia",
    "name:tzl": "Rußía",
    "name:udm": "Россия",
    "name:ug": "روسىيە",
    "name:uk": "Росія",
    "name:ur": "روس",
    "name:uz": "Rossiya Federatsiyasi",
    "name:ve": "Rashia",
    "name:vec": "Rusia",
    "name:vep": "Venäma",
    "name:vi": "Liên bang Nga",
    "name:vls": "Rusland",
    "name:vo": "Rusän",
    "name:vro": "Vinnemaa",
    "name:wa": "Federåcion d' Rûsseye",
    "name:war": "Rusya",
    "name:wo": "Federaasioŋ bu Riisi",
    "name:wuu": "俄罗斯",
    "name:xal": "Орсн Орн Нутг",
    "name:xh": "IRashiya",
    "name:xmf": "რუსეთი",
    "name:yi": "רוסלאנד",
    "name:yo": "Rọ́síà",
    "name:yue": "俄羅斯",
    "name:za": "Ezlozswh Lienzbangh",
    "name:zea": "Rusland",
    "name:zh": "俄罗斯",
    "name:zh-Hans": "俄罗斯",
    "name:zh-Hant": "俄羅斯",
    "name:zu": "IRashiya",
    "official_name": "Российская Федерация",
    "official_name:ar": "الاتحاد الروسي",
    "official_name:ast": "Federación Rusa",
    "official_name:be": "Расійская Федэрацыя",
    "official_name:cs": "Ruská federace",
    "official_name:de": "Russische Föderation",
    "official_name:en": "Russian Federation",
    "official_name:eo": "Rusa Federacio",
    "official_name:es": "Federación Rusa",
    "official_name:et": "Venemaa Föderatsioon",
    "official_name:fi": "Venäjän Federaatio",
    "official_name:fr": "Fédération de Russie",
    "official_name:nl": "Russische Federatie",
    "official_name:pl": "Federacja Rosyjska",
    "official_name:pt": "Federação Russa",
    "official_name:ru": "Российская Федерация",
    "official_name:sk": "Ruská federácia",
    "official_name:sl": "Ruska federacija",
    "official_name:sv": "Ryska Federationen",
    "official_name:uk": "Російська Федерація",
    "official_name:yi": "רוסישע פֿעדעראַציע",
    "official_name:zh": "俄罗斯联邦",
    "official_name:zh-Hans": "俄罗斯联邦",
    "official_name:zh-Hant": "俄羅斯聯邦",
    "old_name": "Московия;Русское Царство;Российская Империя;Российская Советская Федеративная Социалистическая Республика",
    "old_name:is": "Garðaríki",
    "old_short_name": "РСФСР",
    "old_short_name:en": "RSFSR",
    "old_short_name:ru": "РСФСР",
    "population": "146447424",
    "population:date": "2023-01-01",
    "short_name": "РФ",
    "short_name:ru": "РФ",
    "type": "boundary",
    "wikidata": "Q159",
    "wikipedia": "ru:Россия"
  }
},
{
  "type": "area",
  "id": 3600145454,
  "tags": {
    "ISO3166-2": "RU-IRK",
    "addr:country": "RU",
    "admin_level": "4",
    "boundary": "administrative",
    "gost_7.67-2003": "РОФ-ИРК",
    "int_name": "Irkutsk Oblast",
    "int_ref": "RU-IRK",
    "is_in:country": "Russia",
    "is_in:country_code": "RU",
    "name": "Иркутская область",
    "name:ar": "إركوتسك أوبلاست",
    "name:az": "İrkutsk vilayəti",
    "name:bxr": "Эрхүүгэй можо",
    "name:ca": "Província d'Irkutsk",
    "name:cs": "Irkutská oblast",
    "name:de": "Oblast Irkutsk",
    "name:en": "Irkutsk Oblast",
    "name:es": "Óblast de Irkutsk",
    "name:fr": "Oblast d'Irkoutsk",
    "name:hr": "Irkutska oblast",
    "name:hu": "Irkutszki terület",
    "name:hy": "Իրկուտսկի մարզ",
    "name:it": "Oblast' di Irkutsk",
    "name:ja": "イルクーツク州",
    "name:ka": "ირკუტსკის ოლქი",
    "name:lt": "Irkutsko sritis",
    "name:nl": "Oblast Irkoetsk",
    "name:os": "Иркутсчы облæст",
    "name:pl": "Obwód irkucki",
    "name:pt": "Oblast de Irkutsk",
    "name:ru": "Иркутская область",
    "name:sk": "Irkutská oblasť",
    "name:sv": "Irkutsk oblast",
    "name:tt": "Иркутск өлкәсе",
    "name:uk": "Іркутська область",
    "name:vi": "Irkutsk (tỉnh)",
    "name:zh": "伊尔库茨克州",
    "name:zh-Hans": "伊尔库茨克州",
    "name:zh-Hant": "伊爾庫茨克州",
    "population": "2417801",
    "ref": "RU-IRK",
    "type": "boundary",
    "wikidata": "Q6585",
    "wikipedia": "ru:Иркутская область"
  }
},
{
  "type": "area",
  "id": 3600167043,
  "tags": {
    "alt_name:cs": "Bratská vodní nádrž",
    "gvr:code": "16010100821416200001042",
    "name": "Братское водохранилище",
    "name:ca": "Embassament de Bratsk",
    "name:cs": "Bratská přehradní nádrž",
    "name:en": "Bratsk Reservoir",
    "name:eo": "Bratska Rezervujo",
    "name:pl": "Zbiornik Bracki",
    "name:ru": "Братское водохранилище",
    "name:sk": "Bratská vodná nádrž",
    "name:zh": "布拉茨克水库",
    "natural": "water",
    "type": "multipolygon",
    "water": "reservoir",
    "wikidata": "Q899803",
    "wikipedia": "ru:Братское водохранилище"
  }
},
{
  "type": "area",
  "id": 3601221148,
  "tags": {
    "addr:country": "RU",
    "admin_level": "3",
    "boundary": "administrative",
    "int_name": "Siberian Federal District",
    "name": "Сибирский федеральный округ",
    "name:be": "Сібірская федэральная акруга",
    "name:ca": "Districte Federal de Sibèria",
    "name:cs": "Sibiřský federální okruh",
    "name:de": "Föderationskreis Sibirien",
    "name:en": "Siberian Federal District",
    "name:eo": "Siberia federacia regiono",
    "name:es": "Distrito federal de Siberia",
    "name:fi": "Siperian federaatiopiiri",
    "name:fr": "District fédéral sibérien",
    "name:hu": "Szibériai szövetségi körzet",
    "name:it": "Distretto Federale Siberiano",
    "name:ja": "シベリア連邦管区",
    "name:lt": "Sibiro federalinė apygarda",
    "name:nl": "Federaal District Siberië",
    "name:pl": "Syberyjski Okręg Federalny",
    "name:pt": "Distrito Federal Siberiano",
    "name:ru": "Сибирский федеральный округ",
    "name:sk": "Sibírsky federálny okruh",
    "name:sv": "Sibiriska federala distriktet",
    "name:uk": "Сибірський федеральний округ",
    "name:vi": "Vùng liên bang Siberi",
    "name:zh": "西伯利亚联邦管区",
    "name:zh-Hans": "西伯利亚联邦管区",
    "name:zh-Hant": "西伯利亞聯邦管區",
    "official_status": "ru:федеральный округ",
    "population": "16889404",
    "population:date": "2022-01-01",
    "ref": "СФО",
    "short_name": "СФО",
    "short_name:be": "Сібірская ФА",
    "short_name:ru": "Сибирский ФО",
    "short_name:uk": "Сибірський ФО",
    "type": "boundary",
    "wikidata": "Q41979",
    "wikipedia": "ru:Сибирский федеральный округ"
  }
},
{
  "type": "area",
  "id": 3601460641,
  "tags": {
    "addr:country": "RU",
    "addr:region": "Иркутская область",
    "admin_level": "6",
    "boundary": "administrative",
    "name": "Нукутский район",
    "name:ja": "ヌクツキー地区",
    "official_status": "ru:муниципальный район",
    "type": "boundary",
    "wikidata": "Q1653934",
    "wikipedia": "ru:Нукутский район"
  }
},
{
  "type": "area",
  "id": 3603438290,
  "tags": {
    "addr:country": "RU",
    "addr:region": "Иркутская область",
    "admin_level": "5",
    "boundary": "administrative",
    "name": "Усть-Ордынский Бурятский округ",
    "name:ca": "Districte d'Ust-Orda Buriàtia",
    "name:ja": "ウスチオルダ・ブリヤート自治管区",
    "type": "boundary",
    "wikidata": "Q2626661",
    "wikipedia": "ru:Усть-Ордынский Бурятский округ"
  }
},
{
  "type": "area",
  "id": 3603562456,
  "tags": {
    "boundary": "economic",
    "name": "Восточно-Сибирский экономический район",
    "name:ca": "Regió econòmica de Sibèria de l'Est",
    "name:cs": "Východosibiřský ekonomický rajón",
    "name:de": "Wirtschaftsregion Ostsibirien",
    "name:en": "East Siberian economic region",
    "name:es": "Región económica de Siberia del Este",
    "name:fr": "Région économique de Sibérie de l'Est",
    "name:pl": "Wschodniosyberyjski region ekonomiczny",
    "name:pt": "Região Econômica do Leste Siberiano",
    "name:ru": "Восточно-Сибирский экономический район",
    "name:uk": "Східно-Сибірський економічний район",
    "name:zh": "东西伯利亚经济地区",
    "population": "8387300",
    "type": "boundary",
    "wikidata": "Q510167",
    "wikipedia": "ru:Восточно-Сибирский экономический район"
  }
},
{
  "type": "area",
  "id": 3603563885,
  "tags": {
    "alt_name": "UTC+8;MSK+5",
    "boundary": "timezone",
    "name": "Иркутское время",
    "name:ar": "توقيت إركوتسك",
    "name:ca": "Hora d'Irkutsk",
    "name:cs": "Irkutský čas",
    "name:de": "Irkutsker Zeit",
    "name:en": "Irkutsk Time",
    "name:ru": "Иркутское время",
    "name:zh": "伊尔库茨克时间",
    "ref": "IRKT",
    "timezone": "Asia/Irkutsk",
    "type": "boundary",
    "wikidata": "Q2347353",
    "wikipedia": "ru:Иркутское время"
  }
},
{
  "type": "area",
  "id": 3603566379,
  "tags": {
    "alt_name": "Объединённое стратегическое командование \"Центр\"",
    "boundary": "military_district",
    "name": "Центральный военный округ",
    "name:ar": "المنطقة العسكرية المركزية",
    "name:be": "Цэнтральная ваенная акруга",
    "name:de": "Zentraler Militärbezirk",
    "name:en": "Central Military District",
    "name:lt": "Centro karinė apygarda",
    "name:ru": "Центральный военный округ",
    "name:uk": "Центральний військовий округ",
    "name:zh": "中央军区",
    "name:zh-Hans": "中央军区",
    "name:zh-Hant": "中央軍區",
    "ref": "ЦВО",
    "short_name": "ЦВО",
    "start_date": "2010-12-01",
    "type": "boundary",
    "wikidata": "Q2087840",
    "wikipedia": "ru:Центральный военный округ (Россия)"
  }
},
{
  "type": "area",
  "id": 3605738581,
  "tags": {
    "admin_level": "8",
    "boundary": "administrative",
    "name": "сельское поселение Хадахан",
    "official_status": "ru:сельское поселение",
    "type": "boundary",
    "wikidata": "Q16022175",
    "wikipedia": "ru:Муниципальное образование «Хадахан»"
  }
}

  ]
}
